UM5-EOSAT               
1 60555U 24149CR  26191.16142827  .00002480  00000+0  19523-3 0  9997
2 60555  97.6769 269.6378 0009239  49.1318 311.0706 15.01707878103665
LASARSAT                
1 62391U 24247Q   26190.25332936  .00029396  00000+0  55886-3 0  9994
2 62391  44.9739 138.0904 0006560 123.7678 236.3838 15.47760337 86735
CROCUBE                 
1 62394U 24247T   26191.18961366  .00033442  00000+0  58812-3 0  9994
2 62394  44.9700 129.7539 0006914 137.1599 222.9832 15.49924104 86912
TEVEL2-4                
1 63213U 25052D   26192.49695075  .00010763  00000+0  31438-3 0  9992
2 63213  97.3880  88.9397 0003929  59.2750 300.8880 15.35479077 73844
TEVEL2-5                
1 63214U 25052E   26189.65245370  .00014062  00000+0  41324-3 0  9997
2 63214  97.3873  86.0291 0004130  66.2017 293.9660 15.35218873 73403
TEVEL2-6                
1 63215U 25052F   26190.77333909  .00013669  00000+0  40184-3 0  9994
2 63215  97.3877  87.1376 0003968  66.9512 293.2149 15.35215103 73575
TEVEL2-1                
1 63217U 25052H   26192.11448853  .00011367  00000+0  34032-3 0  9999
2 63217  97.3852  88.0769 0004514  68.0772 292.0951 15.34682944 73764
TEVEL2-3                
1 63218U 25052J   26192.17341235  .00011022  00000+0  32943-3 0  9999
2 63218  97.3859  88.1615 0004286  69.2131 290.9570 15.34746846 73778
TEVEL2-2                
1 63219U 25052K   26192.50585361  .00010565  00000+0  31633-3 0  9993
2 63219  97.3854  88.4719 0004520  67.8637 292.3086 15.34702342 73825
TEVEL2-9                
1 63237U 25052AD  26189.64245198  .00012819  00000+0  40918-3 0  9995
2 63237  97.3915  84.9331 0008135  74.7614 285.4527 15.32589963 73319
TEVEL2-7                
1 63238U 25052AE  26192.16911495  .00009701  00000+0  31287-3 0  9992
2 63238  97.3917  87.3624 0008053  67.9064 292.3032 15.32336153 73696
TEVEL2-8                
1 63239U 25052AF  26192.17759897  .00010101  00000+0  32578-3 0  9990
2 63239  97.3917  87.3470 0008071  68.8547 291.3557 15.32321799 73693
FORESAIL-1 PRIME        
1 66778U 25276DS  26190.79222540  .00003123  00000+0  15287-3 0  9999
2 66778  97.4192 263.6509 0003278  56.5130 303.6417 15.18908946 33831
